[{"OBJECT_NAME":"QIANFAN-48","OBJECT_ID":"2024-232N","EPOCH":"2026-03-09T22:50:23.423136","MEAN_MOTION":13.51004043,"ECCENTRICITY":0.00157493,"INCLINATION":89.0067,"RA_OF_ASC_NODE":32.4222,"ARG_OF_PERICENTER":314.4995,"MEAN_ANOMALY":45.4868,"EPHEMERIS_TYPE":0,"CLASSIFICATION_TYPE":"U","NORAD_CAT_ID":62249,"ELEMENT_SET_NO":999,"REV_AT_EPOCH":11102,"BSTAR":0.00013180025,"MEAN_MOTION_DOT":9.7e-7,"MEAN_MOTION_DDOT":0},{"OBJECT_NAME":"COSMOS 970 DEB","OBJECT_ID":"1977-121CH","EPOCH":"2026-03-07T07:58:53.633280","MEAN_MOTION":13.66738966,"ECCENTRICITY":0.0063839,"INCLINATION":65.9959,"RA_OF_ASC_NODE":80.4117,"ARG_OF_PERICENTER":123.1867,"MEAN_ANOMALY":237.5337,"EPHEMERIS_TYPE":0,"CLASSIFICATION_TYPE":"U","NORAD_CAT_ID":64972,"ELEMENT_SET_NO":999,"REV_AT_EPOCH":61277,"BSTAR":0.00085735,"MEAN_MOTION_DOT":6.47e-6,"MEAN_MOTION_DDOT":0}]
